CZ-2C R/B               
1 54039U 22132E   25344.74002550  .00046843  00000+0  69890-3 0  9991
2 54039  97.2950 340.9003 0023344  63.7311 296.6338 15.54610433176521
GSLV R/B                
1 54149U 22138AN  25344.31415340  .00003566  00000+0  31291-3 0  9996
2 54149  87.3825 196.2865 0023996 113.4541 246.9217 14.96109755170560
XRISM                   
1 57800U 23137A   25344.71939264  .00009052  00000+0  53282-3 0  9993
2 57800  31.0008 138.5878 0007655 225.1336 134.8681 15.10310560124324
ACS3                    
1 59588U 24077B   25344.58735961  .00050623  00000+0  43229-1 0  9993
2 59588  97.2698 300.6738 0077791 343.3516  16.5093 13.85335572 81848
SZ-21 MODULE            
1 66515U 25246C   25344.49376162  .00035412  00000+0  39111-3 0  9990
2 66515  41.4772  29.7454 0006278 248.1298 111.8874 15.62311534  4092
